EXPRESS-AM8             
1 40895U 15048A   26172.67244326 -.00000112  00000+0  00000+0 0  9999
2 40895   0.0173 320.0076 0000512   5.3374 172.5956  1.00272350 39396
BEIDOU-3S IGSO-2S       
1 40938U 15053A   26170.70984358 -.00000143  00000+0  00000+0 0  9995
2 40938  49.2167 258.7515 0065583 192.2245 167.5336  1.00258902 39370
SKY MUSTER 1 (NBN1A)    
1 40940U 15054A   26171.20572738  .00000000  00000+0  00000+0 0  9991
2 40940   0.0222 347.9490 0001729  93.5687  41.2026  1.00270506 39297
ARSAT 2                 
1 40941U 15054B   26171.09082887 -.00000230  00000+0  00000+0 0  9996
2 40941   0.0116  20.3420 0002070  52.8593 146.7891  1.00270377 39331
MORELOS 3               
1 40946U 15056A   26171.36017014 -.00000049  00000+0  00000+0 0  9991
2 40946   3.1894  15.1488 0001027   3.9237 266.0631  1.00270955 39310
APSTAR-9                
1 40982U 15059A   26172.51086578 -.00000267  00000+0  00000+0 0  9995
2 40982   0.0449  61.2354 0002393 121.0691  53.3195  1.00270672 39160
TURKSAT 4B              
1 40984U 15060A   26171.40177720  .00000111  00000+0  00000+0 0  9993
2 40984   0.0146 349.5650 0002276  93.7876  19.8648  1.00269072 39136
ZHONGXING-2C            
1 41021U 15063A   26172.55317016 -.00000324  00000+0  00000+0 0  9997
2 41021   0.2863  89.5482 0007780  98.5522  24.2173  1.00268996 39022
GSAT-15                 
1 41028U 15065A   26171.05407052 -.00000263  00000+0  00000+0 0  9992
2 41028   0.0623 264.3518 0004380 166.6119 310.2862  1.00272702 38826
BADR-7 (ARABSAT-6B)     
1 41029U 15065B   26171.32582803  .00000140  00000+0  00000+0 0  9994
2 41029   0.0436 227.4641 0003724 333.5251 210.8305  1.00269290 38790
LAOSAT 1                
1 41034U 15067A   26171.41749902 -.00000348  00000+0  00000+0 0  9998
2 41034   0.0438 143.4427 0002176 258.2064 145.7521  1.00268173 38898
TELSTAR 12V             
1 41036U 15068A   26171.38903713 -.00000124  00000+0  00000+0 0  9991
2 41036   0.0122  50.6261 0002275  32.0364 310.9897  1.00271200 38657
ELEKTRO-L 2             
1 41105U 15074A   26169.03651196 -.00000126  00000+0  00000+0 0  9991
2 41105   6.6975  70.5132 0000902 256.1704 298.2263  1.00270556 38515
COSMOS 2513             
1 41121U 15075A   26172.70878036 -.00000137  00000+0  00000+0 0  9994
2 41121   0.0745 100.2517 0003016 340.6809 164.3715  1.00266022 38594
EXPRESS-AMU1            
1 41191U 15082A   26171.25656352  .00000000  00000+0  00000+0 0  9991
2 41191   0.0193   0.5376 0002809  89.8685 306.5438  1.00267382 38295
GAOFEN-4                
1 41194U 15083A   26172.55360350 -.00000336  00000+0  00000+0 0  9992
2 41194   0.3702  83.8176 0004198 118.5029  12.4212  1.00272762 38576
BELINTERSAT-1           
1 41238U 16001A   26171.25959689  .00000102  00000+0  00000+0 0  9997
2 41238   0.0250 255.7113 0002262 151.5546   6.1424  1.00273986 38262
IRNSS-1E                
1 41241U 16003A   26169.73041566 -.00000318  00000+0  00000+0 0  9999
2 41241  33.2372  59.7280 0018940 178.9729  42.9724  1.00277463 38098
SES-9                   
1 41380U 16013A   26171.34216894 -.00000349  00000+0  00000+0 0  9996
2 41380   0.0111 338.5957 0002324 101.7052  59.7247  1.00269311 37476
IRNSS-1F                
1 41384U 16015A   26170.97063664  .00000151  00000+0  00000+0 0  9995
2 41384   5.3558  96.7185 0017430 184.9553   8.3745  1.00268822 37695
BEIDOU-2 IGSO-6         
1 41434U 16021A   26172.09504345 -.00000159  00000+0  00000+0 0  9998
2 41434  60.2315  37.9988 0057439 231.3221 126.8353  1.00259258 37517
IRNSS-1G                
1 41469U 16027A   26171.48404867 -.00000341  00000+0  00000+0 0  9995
2 41469   5.2051  97.4014 0007659 358.4285 116.4925  1.00258765 37211
JCSAT-2B                
1 41471U 16028A   26171.35118538 -.00000170  00000+0  00000+0 0  9992
2 41471   0.0181   9.2880 0000866  81.4913  98.2080  1.00272039 37160
THAICOM 8               
1 41552U 16031A   26171.40753872 -.00000125  00000+0  00000+0 0  9998
2 41552   0.0601  38.3392 0003702  21.4191  74.0520  1.00271962 36751
INTELSAT 31 (IS-31)     
1 41581U 16035A   26170.94543848 -.00000156  00000+0  00000+0 0  9996
2 41581   0.0181 266.4038 0000929 350.7570 256.3060  1.00271353 36718
BEIDOU-2 G7             
1 41586U 16037A   26172.55447016 -.00000355  00000+0  00000+0 0  9993
2 41586   1.7320  69.3648 0006521 358.2440 152.2640  1.00274439  6933
ABS-2A (MONGOLSAT-1)    
1 41588U 16038A   26171.40684536 -.00000089  00000+0  00000+0 0  9993
2 41588   0.0178  20.6845 0001977   0.5247 108.6147  1.00272219 36742
BRISAT                  
1 41591U 16039A   26170.99403676 -.00000202  00000+0  00000+0 0  9992
2 41591   0.0185 322.1151 0001992 117.0863 337.3513  1.00270455 36635
ECHOSTAR 18             
1 41592U 16039B   26171.23723676 -.00000287  00000+0  00000+0 0  9999
2 41592   0.0186  13.5557 0001436  84.6845 194.2268  1.00269586 36652
