satellite_id,OBJECT_NAME,OBJECT_ID,EPOCH,MEAN_MOTION,ECCENTRICITY,INCLINATION,RA_OF_ASC_NODE,ARG_OF_PERICENTER,MEAN_ANOMALY,EPHEMERIS_TYPE,CLASSIFICATION_TYPE,NORAD_CAT_ID,ELEMENT_SET_NO,REV_AT_EPOCH,BSTAR,MEAN_MOTION_DOT,MEAN_MOTION_DDOT,operator,orbit_type,eccentricity_risk
293,EXPRESS-AM8,2015-048A,2026-06-21T16:08:19.097664,1.0027235,5.12e-05,0.0173,320.0076,5.3374,172.5956,0,U,40895,999,3939,0,-1.12e-06,0,GEO,GEO,0.0511999999999999
294,BEIDOU-3S IGSO-2S,2015-053A,2026-06-19T17:02:10.485312,1.00258902,0.00655838,49.2167,258.7515,192.2245,167.5336,0,U,40938,999,3937,0,-1.43e-06,0,GEO,NON_GEO,6.55838
295,SKY MUSTER 1 (NBN1A),2015-054A,2026-06-20T04:56:14.845632,1.00270506,0.00017294,0.0222,347.949,93.5687,41.2026,0,U,40940,999,3929,0,0.0,0,GEO,GEO,0.17294
296,ARSAT 2,2015-054B,2026-06-20T02:10:47.614368,1.00270377,0.00020708,0.0116,20.342,52.8593,146.7891,0,U,40941,999,3933,0,-2.3e-06,0,GEO,GEO,0.20708
297,MORELOS 3,2015-056A,2026-06-20T08:38:38.700096,1.00270955,0.0001027,3.1894,15.1488,3.9237,266.0631,0,U,40946,999,3931,0,-4.9e-07,0,GEO,GEO,0.1027
298,APSTAR-9,2015-059A,2026-06-21T12:15:38.803392,1.00270672,0.0002393,0.0449,61.2354,121.0691,53.3195,0,U,40982,999,3916,0,-2.67e-06,0,GEO,GEO,0.2392999999999999
299,TURKSAT 4B,2015-060A,2026-06-20T09:38:33.550080,1.00269072,0.0002276,0.0146,349.565,93.7876,19.8648,0,U,40984,999,3913,0,1.11e-06,0,GEO,GEO,0.2276
300,ZHONGXING-2C,2015-063A,2026-06-21T13:16:33.901824,1.00268996,0.000778,0.2863,89.5482,98.5522,24.2173,0,U,41021,999,3902,0,-3.24e-06,0,GEO,GEO,0.778
301,GSAT-15,2015-065A,2026-06-20T01:17:51.692928,1.00272702,0.00043807,0.0623,264.3518,166.6119,310.2862,0,U,41028,999,3882,0,-2.63e-06,0,GEO,GEO,0.4380699999999999
302,BADR-7 (ARABSAT-6B),2015-065B,2026-06-20T07:49:11.541792,1.0026929,0.0003724,0.0436,227.4641,333.5251,210.8305,0,U,41029,999,3879,0,1.4e-06,0,GEO,GEO,0.3724
303,LAOSAT 1,2015-067A,2026-06-20T10:01:11.915328,1.00268173,0.0002176,0.0438,143.4427,258.2064,145.7521,0,U,41034,999,3889,0,-3.48e-06,0,GEO,GEO,0.2176
304,TELSTAR 12V,2015-068A,2026-06-20T09:20:12.808032,1.002712,0.0002275,0.0122,50.6261,32.0364,310.9897,0,U,41036,999,3865,0,-1.24e-06,0,GEO,GEO,0.2275
305,ELEKTRO-L 2,2015-074A,2026-06-18T00:52:34.633344,1.00270556,9.025e-05,6.6975,70.5132,256.1704,298.2263,0,U,41105,999,3851,0,-1.26e-06,0,GEO,NON_GEO,0.09025
306,COSMOS 2513,2015-075A,2026-06-21T17:00:38.623104,1.00266022,0.0003016,0.0745,100.2517,340.6809,164.3715,0,U,41121,999,3859,0,-1.37e-06,0,GEO,GEO,0.3016
307,EXPRESS-AMU1,2015-082A,2026-06-20T06:09:27.088128,1.00267382,0.0002809,0.0193,0.5376,89.8685,306.5438,0,U,41191,999,3829,0,0.0,0,GEO,GEO,0.2809
308,GAOFEN-4,2015-083A,2026-06-21T13:17:11.342400,1.00272762,0.0004198,0.3702,83.8176,118.5029,12.4212,0,U,41194,999,3857,0,-3.36e-06,0,GEO,GEO,0.4198
309,BELINTERSAT-1,2016-001A,2026-06-20T06:13:49.171296,1.00273986,0.0002262,0.025,255.7113,151.5546,6.1424,0,U,41238,999,3826,0,1.02e-06,0,GEO,GEO,0.2261999999999999
310,IRNSS-1E,2016-003A,2026-06-18T17:31:47.913024,1.00277463,0.00189408,33.2372,59.728,178.9729,42.9724,0,U,41241,999,3809,0,-3.18e-06,0,GEO,NON_GEO,1.89408
311,SES-9,2016-013A,2026-06-20T08:12:43.396416,1.00269311,0.0002324,0.0111,338.5957,101.7052,59.7247,0,U,41380,999,3747,0,-3.49e-06,0,GEO,GEO,0.2324
312,IRNSS-1F,2016-015A,2026-06-19T23:17:43.005696,1.00268822,0.001743,5.3558,96.7185,184.9553,8.3745,0,U,41384,999,3769,0,1.51e-06,0,GEO,NON_GEO,1.743
313,BEIDOU-2 IGSO-6,2016-021A,2026-06-21T02:16:51.754080,1.00259258,0.0057439,60.2315,37.9988,231.3221,126.8353,0,U,41434,999,3751,0,-1.59e-06,0,GEO,NON_GEO,5.7439
314,IRNSS-1G,2016-027A,2026-06-20T11:37:01.805088,1.00258765,0.0007659,5.2051,97.4014,358.4285,116.4925,0,U,41469,999,3721,0,-3.41e-06,0,GEO,NON_GEO,0.7659
315,JCSAT-2B,2016-028A,2026-06-20T08:25:42.416832,1.00272039,8.66e-05,0.0181,9.288,81.4913,98.208,0,U,41471,999,3716,0,-1.7e-06,0,GEO,GEO,0.0866
316,THAICOM 8,2016-031A,2026-06-20T09:46:51.345408,1.00271962,0.0003702,0.0601,38.3392,21.4191,74.052,0,U,41552,999,3675,0,-1.25e-06,0,GEO,GEO,0.3702
317,INTELSAT 31 (IS-31),2016-035A,2026-06-19T22:41:25.884672,1.00271353,9.291e-05,0.0181,266.4038,350.757,256.306,0,U,41581,999,3671,0,-1.56e-06,0,GEO,GEO,0.09291
318,BEIDOU-2 G7,2016-037A,2026-06-21T13:18:26.221824,1.00274439,0.0006521,1.732,69.3648,358.244,152.264,0,U,41586,999,693,0,-3.55e-06,0,GEO,GEO,0.6521
319,ABS-2A (MONGOLSAT-1),2016-038A,2026-06-20T09:45:51.439104,1.00272219,0.0001977,0.0178,20.6845,0.5247,108.6147,0,U,41588,999,3674,0,-8.9e-07,0,GEO,GEO,0.1977
320,BRISAT,2016-039A,2026-06-19T23:51:24.776064,1.00270455,0.00019924,0.0185,322.1151,117.0863,337.3513,0,U,41591,999,3663,0,-2.02e-06,0,GEO,GEO,0.19924
321,ECHOSTAR 18,2016-039B,2026-06-20T05:41:37.256064,1.00269586,0.0001436,0.0186,13.5557,84.6845,194.2268,0,U,41592,999,3665,0,-2.87e-06,0,GEO,GEO,0.1436
